STARLINK-30441          
1 57869U 23144F   26167.05622436  .00000392  00000+0  23797-4 0  9994
2 57869  43.0063  89.4417 0001876 278.5194  81.5445 15.27577394152649
STARLINK-30460          
1 57870U 23144G   26167.07422312  .00000975  00000+0  44941-4 0  9990
2 57870  43.0154  89.6158 0000868 259.7676 100.3078 15.27589145152696
STARLINK-30444          
1 57871U 23144H   26167.08191682  .00014946  00000+0  55099-3 0  9993
2 57871  43.0057  89.6772 0001110 264.4576  95.6149 15.27612627152400
STARLINK-30446          
1 57872U 23144J   26167.03376897  .00000731  00000+0  36097-4 0  9997
2 57872  43.0038  75.6803 0001623 265.6263  94.4403 15.27585478152576
STARLINK-30445          
1 57873U 23144K   26166.48959688  .00000508  00000+0  27983-4 0  9997
2 57873  43.0050  92.9681 0001122 297.0655  63.0082 15.27584035152556
STARLINK-30447          
1 57874U 23144L   26166.44654305  .00000905  00000+0  42419-4 0  9994
2 57874  43.0051  67.3779 0001532 269.2570  90.8107 15.27581047152886
STARLINK-30434          
1 57875U 23144M   26167.08961230  .00001865  00000+0  77238-4 0  9997
2 57875  43.0034  89.7319 0001219 262.8966  97.1747 15.27597998152697
STARLINK-30429          
1 57876U 23144N   26167.09350061  .00006547  00000+0  24734-3 0  9997
2 57876  43.0034  89.7635 0000879 285.3914  74.6840 15.27565442152685
STARLINK-30284          
1 57877U 23144P   26166.40945356 -.00000957  00000+0 -25282-4 0  9990
2 57877  42.9972  56.6920 0001261 260.7065  99.3644 15.27568395153008
STARLINK-30433          
1 57878U 23144Q   26166.52157632  .00000079  00000+0  12423-4 0  9992
2 57878  43.0096  92.3504 0002321 276.2992  83.7595 15.27575940152603
STARLINK-30358          
1 57879U 23144R   26167.04851817  .00000183  00000+0  16178-4 0  9994
2 57879  43.0069  89.4242 0001770 267.4631  92.6018 15.27576129152686
STARLINK-30436          
1 57880U 23144S   26165.09334666  .00000561  00000+0  29919-4 0  9994
2 57880  43.0069 100.5487 0002158 276.0788  83.9818 15.27580707152389
STARLINK-30339          
1 57882U 23144U   26166.51400545  .00000602  00000+0  31384-4 0  9999
2 57882  43.0037  93.1458 0001043 273.5816  86.4916 15.27580769152595
STARLINK-30282          
1 57883U 23144V   26166.51900733 -.00001573  00000+0 -47667-4 0  9995
2 57883  43.0058  92.3321 0001480 264.1988  95.8695 15.27565048152603
STARLINK-30340          
1 57884U 23144W   26167.04980531  .00001621  00000+0  68407-4 0  9996
2 57884  43.0057  89.4226 0001362 257.0153 103.0547 15.27584705152685
STARLINK-30279          
1 57885U 23144X   26166.52286555 -.00000398  00000+0 -49694-5 0  9994
2 57885  42.9962  92.3527 0000633 198.4006 161.6823 15.27573088152545
YAOGAN-39 02A           
1 57886U 23145A   26167.28116714  .00006291  00000+0  26359-3 0  9996
2 57886  35.0008 206.1454 0002965 291.8122  68.2277 15.22853567153039
YAOGAN-39 02B           
1 57889U 23145D   26166.90216160  .00004673  00000+0  22691-3 0  9990
2 57889  34.9899 232.2188 0003154  33.7898 326.3016 15.17874083152696
YAOGAN-39 02C           
1 57890U 23145E   26167.30032543  .00004071  00000+0  19813-3 0  9992
2 57890  34.9930 229.8710 0005278  45.8932 314.2215 15.17832123152729
STARLINK-30465          
1 57891U 23146A   26167.13722782  .00000181  00000+0  16092-4 0  9991
2 57891  43.0000 118.1297 0001301 269.2262  90.8440 15.27574310152112
STARLINK-30470          
1 57892U 23146B   26165.61922542 -.00001980  00000+0 -62472-4 0  9992
2 57892  43.0013 126.5191 0001389 280.4579  79.6116 15.27556904151882
STARLINK-30473          
1 57893U 23146C   26167.15648706  .00000755  00000+0  36959-4 0  9999
2 57893  43.0046 118.2081 0000261 267.6719  92.4103 15.27580309152118
STARLINK-30443          
1 57894U 23146D   26167.13852055 -.00000102  00000+0  58201-5 0  9994
2 57894  43.0085 118.1408 0001485 274.6292  85.4390 15.27571981152113
STARLINK-30467          
1 57895U 23146E   26167.12694837  .00000516  00000+0  28304-4 0  9994
2 57895  43.0045 118.0571 0001764 285.3417  74.7240 15.27572903152107
STARLINK-30469          
1 57896U 23146F   26167.14236338  .00000458  00000+0  26162-4 0  9990
2 57896  43.0008 118.1644 0001001 263.7048  96.3689 15.27578267152110
STARLINK-30474          
1 57897U 23146G   26167.14493209  .00000097  00000+0  13045-4 0  9998
2 57897  43.0020 118.1870 0001167 264.2759  95.7960 15.27580705152119
STARLINK-30479          
1 57898U 23146H   26167.14878829  .00000214  00000+0  17288-4 0  9998
2 57898  43.0041 118.2114 0001396 269.9788  90.0903 15.27575836152117
STARLINK-30481          
1 57899U 23146J   26167.15264537  .00002668  00000+0  10642-3 0  9996
2 57899  43.0003 118.2424 0001203 266.2477  93.8237 15.27591586152113
STARLINK-30457          
1 57900U 23146K   26167.17062960  .00000050  00000+0  11340-4 0  9997
2 57900  43.0028 118.3689 0001076 264.1676  95.9053 15.27576333151057
STARLINK-30472          
1 57901U 23146L   26167.13257959  .00002979  00000+0  11773-3 0  9999
2 57901  42.9981 114.6778 0001700 268.3639  91.7018 15.27585107151099
