OBJECT_NAME,OBJECT_ID,EPOCH,MEAN_MOTION,ECCENTRICITY,INCLINATION,RA_OF_ASC_NODE,ARG_OF_PERICENTER,MEAN_ANOMALY,EPHEMERIS_TYPE,CLASSIFICATION_TYPE,NORAD_CAT_ID,ELEMENT_SET_NO,REV_AT_EPOCH,BSTAR,MEAN_MOTION_DOT,MEAN_MOTION_DDOT
STARLINK-30441,2023-144F,2026-06-16T01:20:57.784704,15.27577394,.00018765,43.0063,89.4417,278.5194,81.5445,0,U,57869,999,15264,.23796878E-4,.392E-5,0
STARLINK-30460,2023-144G,2026-06-16T01:46:52.877568,15.27589145,.00008685,43.0154,89.6158,259.7676,100.3078,0,U,57870,999,15269,.44940934E-4,.975E-5,0
STARLINK-30444,2023-144H,2026-06-16T01:57:57.613248,15.27612627,.00011106,43.0057,89.6772,264.4576,95.6149,0,U,57871,999,15240,.55099266E-3,.14946E-3,0
STARLINK-30446,2023-144J,2026-06-16T00:48:37.639008,15.27585478,.00016234,43.0038,75.6803,265.6263,94.4403,0,U,57872,999,15257,.36096655E-4,.731E-5,0
STARLINK-30445,2023-144K,2026-06-15T11:45:01.170432,15.27584035,.00011224,43.0050,92.9681,297.0655,63.0082,0,U,57873,999,15255,.27982834E-4,.508E-5,0
STARLINK-30447,2023-144L,2026-06-15T10:43:01.319520,15.27581047,.00015326,43.0051,67.3779,269.2570,90.8107,0,U,57874,999,15288,.4241874E-4,.905E-5,0
STARLINK-30434,2023-144M,2026-06-16T02:09:02.502720,15.27597998,.00012191,43.0034,89.7319,262.8966,97.1747,0,U,57875,999,15269,.77238047E-4,.1865E-4,0
STARLINK-30429,2023-144N,2026-06-16T02:14:38.452704,15.27565442,.0000879,43.0034,89.7635,285.3914,74.6840,0,U,57876,999,15268,.24734173E-3,.6547E-4,0
STARLINK-30284,2023-144P,2026-06-15T09:49:36.787584,15.27568395,.00012614,42.9972,56.6920,260.7065,99.3644,0,U,57877,999,15300,-.25281709E-4,-.957E-5,0
STARLINK-30433,2023-144Q,2026-06-15T12:31:04.194048,15.27575940,.00023218,43.0096,92.3504,276.2992,83.7595,0,U,57878,999,15260,.12422547E-4,.79E-6,0
STARLINK-30358,2023-144R,2026-06-16T01:09:51.969888,15.27576129,.00017707,43.0069,89.4242,267.4631,92.6018,0,U,57879,999,15268,.16177832E-4,.183E-5,0
STARLINK-30436,2023-144S,2026-06-14T02:14:25.151424,15.27580707,.00021581,43.0069,100.5487,276.0788,83.9818,0,U,57880,999,15238,.29919234E-4,.561E-5,0
STARLINK-30339,2023-144U,2026-06-15T12:20:10.070880,15.27580769,.00010437,43.0037,93.1458,273.5816,86.4916,0,U,57882,999,15259,.31383588E-4,.602E-5,0
STARLINK-30282,2023-144V,2026-06-15T12:27:22.233312,15.27565048,.00014801,43.0058,92.3321,264.1988,95.8695,0,U,57883,999,15260,-.47667127E-4,-.1573E-4,0
STARLINK-30340,2023-144W,2026-06-16T01:11:43.178784,15.27584705,.00013621,43.0057,89.4226,257.0153,103.0547,0,U,57884,999,15268,.68407453E-4,.1621E-4,0
STARLINK-30279,2023-144X,2026-06-15T12:32:55.583520,15.27573088,.0000633,42.9962,92.3527,198.4006,161.6823,0,U,57885,999,15254,-.4969417E-5,-.398E-5,0
YAOGAN-39 02A,2023-145A,2026-06-16T06:44:52.840896,15.22853567,.00029659,35.0008,206.1454,291.8122,68.2277,0,U,57886,999,15303,.26359012E-3,.6291E-4,0
YAOGAN-39 02B,2023-145D,2026-06-15T21:39:06.762240,15.17874083,.0003154,34.9899,232.2188,33.7898,326.3016,0,U,57889,999,15269,.22691E-3,.4673E-4,0
YAOGAN-39 02C,2023-145E,2026-06-16T07:12:28.117152,15.17832123,.00052783,34.9930,229.8710,45.8932,314.2215,0,U,57890,999,15272,.1981336E-3,.4071E-4,0
STARLINK-30465,2023-146A,2026-06-16T03:17:36.483648,15.27574310,.00013012,43.0000,118.1297,269.2262,90.8440,0,U,57891,999,15211,.16091992E-4,.181E-5,0
STARLINK-30470,2023-146B,2026-06-14T14:51:41.076288,15.27556904,.0001389,43.0013,126.5191,280.4579,79.6116,0,U,57892,999,15188,-.62472E-4,-.198E-4,0
STARLINK-30473,2023-146C,2026-06-16T03:45:20.481984,15.27580309,.00002618,43.0046,118.2081,267.6719,92.4103,0,U,57893,999,15211,.36959451E-4,.755E-5,0
STARLINK-30443,2023-146D,2026-06-16T03:19:28.175520,15.27571981,.00014853,43.0085,118.1408,274.6292,85.4390,0,U,57894,999,15211,.5820109E-5,-.102E-5,0
STARLINK-30467,2023-146E,2026-06-16T03:02:48.339168,15.27572903,.00017644,43.0045,118.0571,285.3417,74.7240,0,U,57895,999,15210,.28303948E-4,.516E-5,0
STARLINK-30469,2023-146F,2026-06-16T03:25:00.196032,15.27578267,.00010017,43.0008,118.1644,263.7048,96.3689,0,U,57896,999,15211,.26162365E-4,.458E-5,0
STARLINK-30474,2023-146G,2026-06-16T03:28:42.132576,15.27580705,.00011676,43.0020,118.1870,264.2759,95.7960,0,U,57897,999,15211,.13045095E-4,.97E-6,0
STARLINK-30479,2023-146H,2026-06-16T03:34:15.308256,15.27575836,.00013961,43.0041,118.2114,269.9788,90.0903,0,U,57898,999,15211,.17287846E-4,.214E-5,0
STARLINK-30481,2023-146J,2026-06-16T03:39:48.559968,15.27591586,.00012038,43.0003,118.2424,266.2477,93.8237,0,U,57899,999,15211,.10641663E-3,.2668E-4,0
STARLINK-30457,2023-146K,2026-06-16T04:05:42.397440,15.27576333,.00010768,43.0028,118.3689,264.1676,95.9053,0,U,57900,999,15105,.11339786E-4,.5E-6,0
STARLINK-30472,2023-146L,2026-06-16T03:10:54.876576,15.27585107,.00017007,42.9981,114.6778,268.3639,91.7018,0,U,57901,999,15109,.11773446E-3,.2979E-4,0
